COSMOS 1892             
1 18421U 87088A   21208.56305862  .00000856  00000-0  40677-4 0  9992
2 18421  82.4983 232.4392 0016520  98.2815 262.0292 15.17726203846201
SL-14 R/B               
1 18749U 88001B   21208.87410541  .00000091  00000-0  81158-5 0  9997
2 18749  82.5161 337.6923 0019817  45.6162  70.8711 14.83267607791967
COSMOS 1933             
1 18958U 88020A   21208.74725417  .00000491  00000-0  33478-4 0  9992
2 18958  82.5288  94.1671 0010481 205.0355 155.0365 15.03959678795995
SL-3 R/B                
1 19046U 88032B   21208.95118203  .00000162  00000-0  16266-4 0  9997
2 19046  97.3886 217.6262 0034643 264.4683  95.2591 15.02979569797863
SL-16 R/B               
1 19120U 88039B   21208.95461850 -.00000012  00000-0  17066-4 0  9990
2 19120  71.0153  31.6732 0020489  40.9893 319.2768 14.19223725719188
COSMOS 1953             
1 19210U 88050A   21208.91231725  .00000152  00000-0  83439-5 0  9997
2 19210  82.5160  16.1607 0013871 166.0725 194.0888 15.06320953782699
SL-8 R/B                
1 19257U 88053B   21208.83007094  .00000005  00000-0  10526-4 0  9995
2 19257  74.0503 335.5724 0020924 216.7063 254.9555 14.37526023734255
COSMOS 1975             
1 19573U 88093A   21208.85035380  .00000165  00000-0  95239-5 0  9993
2 19573  82.5215 331.4142 0013326 214.5450 145.4912 15.05222405764441
SL-14 R/B               
1 19574U 88093B   21209.04314517  .00000083  00000-0  72291-5 0  9990
2 19574  82.5323 180.7692 0020947 200.7060 228.3665 14.83378279772089
SL-16 R/B               
1 19650U 88102B   21208.96018018 -.00000084  00000-0 -18388-4 0  9992
2 19650  70.9998  97.2091 0012532  51.6843 308.5404 14.15804652688274
INTERCOSMOS 24          
1 20261U 89080A   21208.82392960 -.00000061  00000-0 -20569-4 0  9993
2 20261  82.6067 117.9538 1201630 232.3649 116.2399 12.56217114454899
SL-14 R/B               
1 20262U 89080C   21208.92511439  .00000119  00000-0  26391-4 0  9990
2 20262  82.5940 174.2060 1237973  72.6151 300.6291 12.48974113449600
DELTA 2 R/B(1)          
1 20303U 89085B   21208.68055917  .00004412  00000-0  13482-3 0  9994
2 20303  35.6429 341.1952 0090001 184.8100 175.1769 15.29491695730632
DELTA 1 R/B             
1 20323U 89089B   21208.81469305  .00000039  00000-0  19071-4 0  9997
2 20323  97.1223 296.8479 0072553  37.0390 323.5783 14.48410440651547
ARIANE 40 R/B           
1 20443U 90005H   21208.79156675  .00000039  00000-0  27471-4 0  9993
2 20443  98.5265 274.7583 0009872 208.9138 151.1503 14.38135970650371
DELTA 2 R/B(1)          
1 20453U 90008B   21208.82356452  .00002623  00000-0  14665-3 0  9997
2 20453  35.6247  24.0533 0275600  91.5509 271.6790 14.86664852671533
COSMOS 2058             
1 20465U 90010A   21209.14452160  .00000233  00000-0  17300-4 0  9997
2 20465  82.4874 242.8952 0013765 273.7866  86.1783 14.98243045710174
SL-14 R/B               
1 20466U 90010B   21208.81445544  .00000084  00000-0  76214-5 0  9993
2 20466  82.5016  47.4070 0022063  86.2091 274.1645 14.81431316678746
SL-14 R/B               
1 20511U 90018B   21208.90654042  .00000077  00000-0  71147-5 0  9999
2 20511  82.5243 355.5110 0016350 224.5988 249.3066 14.80085568673087
HST                     
1 20580U 90037B   21208.59107459  .00000608  00000-0  25784-4 0  9991
2 20580  28.4691 159.4907 0002894 133.1157  29.6651 15.09690373517337
SL-16 R/B               
1 20625U 90046B   21209.09393430 -.00000098  00000-0 -25943-4 0  9995
2 20625  70.9978 236.7643 0015251 337.0842  22.9599 14.14674808610230
COSMOS 2084             
1 20663U 90055A   21208.82342155  .00000039  00000-0  21875-4 0  9998
2 20663  62.7932 254.5008 0076272  12.5603 347.7368 14.92273991683847
SL-6 R/B(2)             
1 20666U 90055D   21208.60758118  .00000213  00000-0  36817-4 0  9993
2 20666  62.7838 170.6218 0103275  39.3125 321.5407 14.92524888685767
SL-8 R/B                
1 20775U 90078B   21208.80975153  .00003199  00000-0  15273-3 0  9999
2 20775  82.9239 251.9444 0566638  17.6293 344.3697 14.36121697563883
SL-8 R/B                
1 21088U 91006B   21208.89054338  .00000071  00000-0  56213-4 0  9997
2 21088  82.9445 343.7788 0023911  77.1250  85.1521 13.77174156532016
OKEAN-3                 
1 21397U 91039A   21208.85188695  .00000299  00000-0  26192-4 0  9991
2 21397  82.5231 151.3006 0016136 251.5407 108.4059 14.93129915612732
COSMOS 2151             
1 21422U 91042A   21208.61597855  .00000171  00000-0  14204-4 0  9990
2 21422  82.4992 257.1593 0013116 324.6868  35.3482 14.92276575611256
SL-14 R/B               
1 21423U 91042B   21208.89872494  .00000073  00000-0  65909-5 0  9996
2 21423  82.4951 357.9546 0017949  15.9324 344.2450 14.79835055603622
ERS-1                   
1 21574U 91050A   21208.85912749  .00000036  00000-0  26753-4 0  9998
2 21574  98.6498 169.6215 0033258 159.9647 200.2853 14.37806620573379
ARIANE 40 R/B           
1 21610U 91050F   21208.80668358  .00000035  00000-0  24519-4 0  9995
2 21610  98.4216 278.9496 0004390 115.4138 355.8419 14.40957222576072
INTERCOSMOS 25          
1 21819U 91086A   21208.53497870  .00000265  00000-0  45790-4 0  9993
2 21819  82.5784 243.5282 1517132 128.6787 246.0130 12.05265419293085
SL-8 R/B                
1 21876U 92008B   21208.79278226  .00000074  00000-0  60518-4 0  9994
2 21876  82.9256  81.1537 0035112 160.1689 272.0582 13.75682892477607
SL-8 R/B                
1 21938U 92020B   21208.85338292  .00000065  00000-0  52552-4 0  9993
2 21938  82.9325 325.5837 0028344 324.6384 148.2047 13.75291471469395
COSMOS 2219             
1 22219U 92076A   21208.67146825 -.00000136  00000-0 -47101-4 0  9991
2 22219  71.0597 301.2070 0020342 256.7687 103.1166 14.13656662480079
SL-16 R/B               
1 22220U 92076B   21209.14629369  .00000228  00000-0  13860-3 0  9999
2 22220  71.0006 137.5697 0011732 152.8447 306.0870 14.16471704483450
COSMOS 2221             
1 22236U 92080A   21208.71687412  .00000249  00000-0  24244-4 0  9998
2 22236  82.5068  80.6873 0018001  59.0085 301.2898 14.88077481529538
SL-16 R/B               
1 22285U 92093B   21208.70723493 -.00000026  00000-0  11043-4 0  9992
2 22285  71.0230 302.3205 0004996 331.4377  28.6472 14.15066276474636
COSMOS 2228             
1 22286U 92094A   21209.07982851  .00000250  00000-0  24186-4 0  9990
2 22286  82.5190  37.0601 0021309 169.6717 190.4943 14.88301936545845
SL-16 R/B               
1 22566U 93016B   21208.89878046  .00000091  00000-0  71692-4 0  9992
2 22566  71.0070 154.6772 0010189 357.0628   3.0433 14.14970940463689
COSMOS 2242             
1 22626U 93024A   21208.69435063  .00000242  00000-0  23504-4 0  9991
2 22626  82.5202  65.7241 0019017 170.6351 189.5225 14.88152179529100
SL-16 R/B               
1 22803U 93059B   21208.65284496  .00000184  00000-0  11577-3 0  9995
2 22803  70.9915 325.3329 0019403 260.1881  99.7051 14.16838627440698
ARIANE 40 R/B           
1 22830U 93061H   21208.78268509 -.00000006  00000-0  14767-4 0  9998
2 22830  98.7109 266.4665 0010413 207.8176 152.2451 14.31486539452810
COSMOS 2278             
1 23087U 94023A   21209.07978998  .00000176  00000-0  11755-3 0  9995
2 23087  71.0553  99.8118 0006959  78.8081 281.3823 14.13836959406770
SL-16 R/B               
1 23088U 94023B   21208.84211652  .00000216  00000-0  13706-3 0  9990
2 23088  70.9988  10.2320 0004478 314.1445  45.9309 14.14691117407643
SL-16 R/B               
1 23343U 94074B   21208.74010181  .00000029  00000-0  11342-4 0  9990
2 23343  97.9433 262.7532 0005495 288.4268 142.0350 14.76891390438233
SL-16 R/B               
1 23405U 94077B   21208.69933612  .00000041  00000-0  45665-4 0  9998
2 23405  70.9842 298.3703 0004085 236.3410 123.7323 14.15244504377675
ERS-2                   
1 23560U 95021A   21208.84350769  .00001322  00000-0  58208-4 0  9993
2 23560  98.5445  64.5888 0002468 212.9016 147.2065 15.24069388403843
ARIANE 40+ R/B          
1 23561U 95021B   21208.77127130  .00000035  00000-0  26607-4 0  9998
2 23561  98.6717 258.9594 0007953 126.4995 344.8852 14.38037190376825
SL-16 R/B               
1 23705U 95058B   21208.89722416 -.00000234  00000-0 -95776-4 0  9995
2 23705  71.0231 118.2731 0012186 180.1442 179.9680 14.15151794329332
SL-16 R/B               
1 24298U 96051B   21208.87985245 -.00000171  00000-0 -66263-4 0  9995
2 24298  70.8279 135.6748 0013669 116.3877 243.8648 14.12431015283608
ORBVIEW 2 (SEASTAR)     
1 24883U 97037A   21208.83945485  .00000027  00000-0  25895-4 0  9992
2 24883  98.6470 326.8734 0002287  17.7501 342.3763 14.33624954266793
SL-16 R/B               
1 25400U 98043G   21208.79355785 -.00000013  00000-0  13088-4 0  9996
2 25400  98.6404 144.0489 0008975 230.3400 129.6989 14.25479533198763
SL-16 R/B               
1 25407U 98045B   21208.87681025  .00000267  00000-0  16010-3 0  9990
2 25407  71.0118 125.5385 0005496  69.8796 290.2918 14.15840318188469
ISS (ZARYA)             
1 25544U 98067A   21209.27487523 -.00000447  00000-0  00000+0 0  9997
2 25544  51.6446 139.5449 0001372 203.3526 290.9078 15.48864796294960
CZ-4B R/B               
1 25732U 99025C   21208.66431823 -.00000009  00000-0  17387-4 0  9990
2 25732  98.8996 245.2058 0038149 133.9693 335.8325 14.17696693149235
OKEAN-O                 
1 25860U 99039A   21208.64346621  .00000070  00000-0  17504-4 0  9994
2 25860  98.1803 239.9368 0001586  70.8327 289.3054 14.76748691185311
SL-16 R/B               
1 25861U 99039B   21209.02391750  .00000041  00000-0  13071-4 0  9994
2 25861  98.2030 225.1777 0014420 297.8227 120.9074 14.78652798187696
DELTA 2 R/B             
1 25876U 99041E   21208.82772724  .00000116  00000-0  61695-4 0  9992
2 25876  51.7627 149.8628 0531662  86.5005 279.6553 14.04591238125599
HELIOS 1B               
1 25977U 99064A   21209.05850271  .00000065  00000-0  15297-4 0  9999
2 25977  98.3192  25.1790 0002510 103.4204 256.7288 14.82570222166510
